[{"OBJECT_NAME":"OPS 7218 (TRANSIT 16)","OBJECT_ID":"1967-048A","EPOCH":"2026-03-29T05:16:22.320192","MEAN_MOTION":13.50749012,"ECCENTRICITY":0.0020375,"INCLINATION":89.68,"RA_OF_ASC_NODE":350.5356,"ARG_OF_PERICENTER":162.6503,"MEAN_ANOMALY":351.1421,"EPHEMERIS_TYPE":0,"CLASSIFICATION_TYPE":"U","NORAD_CAT_ID":2807,"ELEMENT_SET_NO":999,"REV_AT_EPOCH":89713,"BSTAR":0.00017803,"MEAN_MOTION_DOT":1.25e-6,"MEAN_MOTION_DDOT":0},{"OBJECT_NAME":"OPS 4947 (TRANSIT 17)","OBJECT_ID":"1967-092A","EPOCH":"2026-03-29T04:56:39.556032","MEAN_MOTION":13.5348292,"ECCENTRICITY":0.0045816,"INCLINATION":89.2586,"RA_OF_ASC_NODE":16.3436,"ARG_OF_PERICENTER":287.9887,"MEAN_ANOMALY":189.9743,"EPHEMERIS_TYPE":0,"CLASSIFICATION_TYPE":"U","NORAD_CAT_ID":2965,"ELEMENT_SET_NO":999,"REV_AT_EPOCH":88537,"BSTAR":0.00015941,"MEAN_MOTION_DOT":1.19e-6,"MEAN_MOTION_DDOT":0},{"OBJECT_NAME":"OPS 7034 (TRANSIT 18)","OBJECT_ID":"1968-012A","EPOCH":"2026-03-29T00:53:35.378592","MEAN_MOTION":13.51593456,"ECCENTRICITY":0.0072578,"INCLINATION":90.0204,"RA_OF_ASC_NODE":273.9097,"ARG_OF_PERICENTER":221.5491,"MEAN_ANOMALY":301.7896,"EPHEMERIS_TYPE":0,"CLASSIFICATION_TYPE":"U","NORAD_CAT_ID":3133,"ELEMENT_SET_NO":999,"REV_AT_EPOCH":58354,"BSTAR":0.00016847,"MEAN_MOTION_DOT":1.21e-6,"MEAN_MOTION_DDOT":0},{"OBJECT_NAME":"NNSS 19 (TRANSIT 19)","OBJECT_ID":"1970-067A","EPOCH":"2026-03-29T02:28:40.477728","MEAN_MOTION":13.51342961,"ECCENTRICITY":0.0171037,"INCLINATION":90.0097,"RA_OF_ASC_NODE":234.5982,"ARG_OF_PERICENTER":345.3521,"MEAN_ANOMALY":14.2707,"EPHEMERIS_TYPE":0,"CLASSIFICATION_TYPE":"U","NORAD_CAT_ID":4507,"ELEMENT_SET_NO":999,"REV_AT_EPOCH":73658,"BSTAR":0.0001765,"MEAN_MOTION_DOT":1.34e-6,"MEAN_MOTION_DDOT":0},{"OBJECT_NAME":"NNSS 20 (TRANSIT 20)","OBJECT_ID":"1973-081A","EPOCH":"2026-03-29T04:57:58.421088","MEAN_MOTION":13.71483585,"ECCENTRICITY":0.0156385,"INCLINATION":89.8536,"RA_OF_ASC_NODE":253.4296,"ARG_OF_PERICENTER":118.7019,"MEAN_ANOMALY":242.9964,"EPHEMERIS_TYPE":0,"CLASSIFICATION_TYPE":"U","NORAD_CAT_ID":6909,"ELEMENT_SET_NO":999,"REV_AT_EPOCH":81820,"BSTAR":0.00025488,"MEAN_MOTION_DOT":2.62e-6,"MEAN_MOTION_DDOT":0},{"OBJECT_NAME":"TRANSAT","OBJECT_ID":"1977-106A","EPOCH":"2026-03-29T00:07:46.738848","MEAN_MOTION":13.48960876,"ECCENTRICITY":0.0023627,"INCLINATION":89.6416,"RA_OF_ASC_NODE":74.777,"ARG_OF_PERICENTER":245.3799,"MEAN_ANOMALY":175.9629,"EPHEMERIS_TYPE":0,"CLASSIFICATION_TYPE":"U","NORAD_CAT_ID":10457,"ELEMENT_SET_NO":999,"REV_AT_EPOCH":38176,"BSTAR":0.00014889,"MEAN_MOTION_DOT":1.03e-6,"MEAN_MOTION_DDOT":0},{"OBJECT_NAME":"NOVA 1","OBJECT_ID":"1981-044A","EPOCH":"2026-03-29T01:03:22.642848","MEAN_MOTION":13.23289795,"ECCENTRICITY":0.0014663,"INCLINATION":89.8417,"RA_OF_ASC_NODE":89.8223,"ARG_OF_PERICENTER":163.7245,"MEAN_ANOMALY":256.7582,"EPHEMERIS_TYPE":0,"CLASSIFICATION_TYPE":"U","NORAD_CAT_ID":12458,"ELEMENT_SET_NO":999,"REV_AT_EPOCH":16592,"BSTAR":0.00019758,"MEAN_MOTION_DOT":9.3e-7,"MEAN_MOTION_DDOT":0},{"OBJECT_NAME":"NOVA 3","OBJECT_ID":"1984-110A","EPOCH":"2026-03-29T05:31:56.294688","MEAN_MOTION":13.23059897,"ECCENTRICITY":0.0032767,"INCLINATION":90.1135,"RA_OF_ASC_NODE":81.7289,"ARG_OF_PERICENTER":38.6294,"MEAN_ANOMALY":333.5841,"EPHEMERIS_TYPE":0,"CLASSIFICATION_TYPE":"U","NORAD_CAT_ID":15362,"ELEMENT_SET_NO":999,"REV_AT_EPOCH":106,"BSTAR":0.00025665,"MEAN_MOTION_DOT":1.17e-6,"MEAN_MOTION_DDOT":0},{"OBJECT_NAME":"OSCAR 30","OBJECT_ID":"1985-066A","EPOCH":"2026-03-29T02:03:17.161920","MEAN_MOTION":13.36098546,"ECCENTRICITY":0.0168967,"INCLINATION":90.1523,"RA_OF_ASC_NODE":101.5272,"ARG_OF_PERICENTER":143.1253,"MEAN_ANOMALY":284.1461,"EPHEMERIS_TYPE":0,"CLASSIFICATION_TYPE":"U","NORAD_CAT_ID":15935,"ELEMENT_SET_NO":999,"REV_AT_EPOCH":97873,"BSTAR":0.0001908,"MEAN_MOTION_DOT":1.16e-6,"MEAN_MOTION_DDOT":0},{"OBJECT_NAME":"OSCAR 24","OBJECT_ID":"1985-066B","EPOCH":"2026-03-29T01:57:22.474368","MEAN_MOTION":13.3595585,"ECCENTRICITY":0.0169786,"INCLINATION":90.1673,"RA_OF_ASC_NODE":94.1244,"ARG_OF_PERICENTER":149.6207,"MEAN_ANOMALY":278.8008,"EPHEMERIS_TYPE":0,"CLASSIFICATION_TYPE":"U","NORAD_CAT_ID":15936,"ELEMENT_SET_NO":999,"REV_AT_EPOCH":98063,"BSTAR":0.00015124,"MEAN_MOTION_DOT":9.4e-7,"MEAN_MOTION_DDOT":0},{"OBJECT_NAME":"POLAR BEAR","OBJECT_ID":"1986-088A","EPOCH":"2026-03-29T04:53:24.569376","MEAN_MOTION":13.75274524,"ECCENTRICITY":0.0040365,"INCLINATION":89.6257,"RA_OF_ASC_NODE":179.5529,"ARG_OF_PERICENTER":156.7735,"MEAN_ANOMALY":263.4388,"EPHEMERIS_TYPE":0,"CLASSIFICATION_TYPE":"U","NORAD_CAT_ID":17070,"ELEMENT_SET_NO":999,"REV_AT_EPOCH":97442,"BSTAR":0.00011055,"MEAN_MOTION_DOT":1.18e-6,"MEAN_MOTION_DDOT":0},{"OBJECT_NAME":"OSCAR 27","OBJECT_ID":"1987-080A","EPOCH":"2026-03-28T22:25:10.719840","MEAN_MOTION":13.4492761,"ECCENTRICITY":0.0101843,"INCLINATION":90.3652,"RA_OF_ASC_NODE":83.1833,"ARG_OF_PERICENTER":280.6882,"MEAN_ANOMALY":78.2811,"EPHEMERIS_TYPE":0,"CLASSIFICATION_TYPE":"U","NORAD_CAT_ID":18361,"ELEMENT_SET_NO":999,"REV_AT_EPOCH":88984,"BSTAR":0.00014298,"MEAN_MOTION_DOT":9.4e-7,"MEAN_MOTION_DDOT":0},{"OBJECT_NAME":"OSCAR 29","OBJECT_ID":"1987-080B","EPOCH":"2026-03-29T01:22:09.075936","MEAN_MOTION":13.44467617,"ECCENTRICITY":0.010372,"INCLINATION":90.3661,"RA_OF_ASC_NODE":83.6548,"ARG_OF_PERICENTER":304.0424,"MEAN_ANOMALY":126.258,"EPHEMERIS_TYPE":0,"CLASSIFICATION_TYPE":"U","NORAD_CAT_ID":18362,"ELEMENT_SET_NO":999,"REV_AT_EPOCH":88938,"BSTAR":0.00018581,"MEAN_MOTION_DOT":1.19e-6,"MEAN_MOTION_DDOT":0},{"OBJECT_NAME":"OSCAR 23","OBJECT_ID":"1988-033A","EPOCH":"2026-03-29T01:37:55.619040","MEAN_MOTION":13.27806143,"ECCENTRICITY":0.0187559,"INCLINATION":90.3319,"RA_OF_ASC_NODE":19.7246,"ARG_OF_PERICENTER":244.5579,"MEAN_ANOMALY":124.9363,"EPHEMERIS_TYPE":0,"CLASSIFICATION_TYPE":"U","NORAD_CAT_ID":19070,"ELEMENT_SET_NO":999,"REV_AT_EPOCH":83664,"BSTAR":8.7879e-5,"MEAN_MOTION_DOT":5.0e-7,"MEAN_MOTION_DDOT":0},{"OBJECT_NAME":"OSCAR 32","OBJECT_ID":"1988-033B","EPOCH":"2026-03-29T04:57:50.412672","MEAN_MOTION":13.27970333,"ECCENTRICITY":0.0186132,"INCLINATION":90.3323,"RA_OF_ASC_NODE":19.8665,"ARG_OF_PERICENTER":230.8178,"MEAN_ANOMALY":255.6239,"EPHEMERIS_TYPE":0,"CLASSIFICATION_TYPE":"U","NORAD_CAT_ID":19071,"ELEMENT_SET_NO":999,"REV_AT_EPOCH":83678,"BSTAR":0.00012355,"MEAN_MOTION_DOT":6.8e-7,"MEAN_MOTION_DDOT":0},{"OBJECT_NAME":"NOVA 2","OBJECT_ID":"1988-052A","EPOCH":"2026-03-29T00:38:14.815104","MEAN_MOTION":13.22950304,"ECCENTRICITY":0.0032352,"INCLINATION":89.9796,"RA_OF_ASC_NODE":78.083,"ARG_OF_PERICENTER":81.1455,"MEAN_ANOMALY":343.2959,"EPHEMERIS_TYPE":0,"CLASSIFICATION_TYPE":"U","NORAD_CAT_ID":19223,"ELEMENT_SET_NO":999,"REV_AT_EPOCH":82353,"BSTAR":0.00021093,"MEAN_MOTION_DOT":9.8e-7,"MEAN_MOTION_DDOT":0},{"OBJECT_NAME":"OSCAR 25","OBJECT_ID":"1988-074A","EPOCH":"2026-03-29T01:57:11.798784","MEAN_MOTION":13.42645795,"ECCENTRICITY":0.0094587,"INCLINATION":90.0446,"RA_OF_ASC_NODE":20.6234,"ARG_OF_PERICENTER":303.7865,"MEAN_ANOMALY":65.8848,"EPHEMERIS_TYPE":0,"CLASSIFICATION_TYPE":"U","NORAD_CAT_ID":19419,"ELEMENT_SET_NO":999,"REV_AT_EPOCH":84067,"BSTAR":0.00014353,"MEAN_MOTION_DOT":9.2e-7,"MEAN_MOTION_DDOT":0}]
