OPS 7218 (TRANSIT 16)   
1 02807U 67048A   26088.21970278  .00000125  00000+0  17803-3 0  9991
2 02807  89.6800 350.5356 0020375 162.6503 351.1421 13.50749012897134
OPS 4947 (TRANSIT 17)   
1 02965U 67092A   26088.20601338  .00000119  00000+0  15941-3 0  9996
2 02965  89.2586  16.3436 0045816 287.9887 189.9743 13.53482920885377
OPS 7034 (TRANSIT 18)   
1 03133U 68012A   26088.03721503  .00000121  00000+0  16847-3 0  9994
2 03133  90.0204 273.9097 0072578 221.5491 301.7896 13.51593456583548
NNSS 19 (TRANSIT 19)    
1 04507U 70067A   26088.10324627  .00000134  00000+0  17650-3 0  9994
2 04507  90.0097 234.5982 0171037 345.3521  14.2707 13.51342961736583
NNSS 20 (TRANSIT 20)    
1 06909U 73081A   26088.20692617  .00000262  00000+0  25488-3 0  9999
2 06909  89.8536 253.4296 0156385 118.7019 242.9964 13.71483585818201
TRANSAT                 
1 10457U 77106A   26088.00540207  .00000103  00000+0  14889-3 0  9996
2 10457  89.6416  74.7770 0023627 245.3799 175.9629 13.48960876381760
NOVA 1                  
1 12458U 81044A   26088.04401207  .00000093  00000+0  19758-3 0  9993
2 12458  89.8417  89.8223 0014663 163.7245 256.7582 13.23289795165926
NOVA 3                  
1 15362U 84110A   26088.23051267  .00000117  00000+0  25665-3 0  9996
2 15362  90.1135  81.7289 0032767  38.6294 333.5841 13.23059897  1061
OSCAR 30                
1 15935U 85066A   26088.08561530  .00000116  00000+0  19080-3 0  9998
2 15935  90.1523 101.5272 0168967 143.1253 284.1461 13.36098546978734
OSCAR 24                
1 15936U 85066B   26088.08151012  .00000094  00000+0  15124-3 0  9999
2 15936  90.1673  94.1244 0169786 149.6207 278.8008 13.35955850980635
POLAR BEAR              
1 17070U 86088A   26088.20375659  .00000118  00000+0  11055-3 0  9990
2 17070  89.6257 179.5529 0040365 156.7735 263.4388 13.75274524974424
OSCAR 27                
1 18361U 87080A   26087.93415185  .00000094  00000+0  14298-3 0  9990
2 18361  90.3652  83.1833 0101843 280.6882  78.2811 13.44927610889844
OSCAR 29                
1 18362U 87080B   26088.05704949  .00000119  00000+0  18581-3 0  9991
2 18362  90.3661  83.6548 0103720 304.0424 126.2580 13.44467617889384
OSCAR 23                
1 19070U 88033A   26088.06800485  .00000050  00000+0  87879-4 0  9991
2 19070  90.3319  19.7246 0187559 244.5579 124.9363 13.27806143836644
OSCAR 32                
1 19071U 88033B   26088.20683348  .00000068  00000+0  12355-3 0  9990
2 19071  90.3323  19.8665 0186132 230.8178 255.6239 13.27970333836787
NOVA 2                  
1 19223U 88052A   26088.02656036  .00000098  00000+0  21093-3 0  9996
2 19223  89.9796  78.0830 0032352  81.1455 343.2959 13.22950304823537
OSCAR 25                
1 19419U 88074A   26088.08138656  .00000092  00000+0  14353-3 0  9991
2 19419  90.0446  20.6234 0094587 303.7865  65.8848 13.42645795840671
